{
  "type": "FeatureCollection",
  "features": [
    {
      "type": "Feature",
      "properties": {
        "norad_id": 41866,
        "name": "GOES 16",
        "group": "weather",
        "lat": -0.04792713277055682,
        "lon": 48.26418583678271,
        "alt_km": 35796.527569208425,
        "timestamp": "2025-12-25T03:55:55.948768+00:00",
        "meta_object_name": "GOES 16",
        "meta_object_id": "2016-071A",
        "meta_epoch": "2025-12-24T04:56:56.433408",
        "meta_mean_motion": 1.00271814,
        "meta_eccentricity": 0.00031453,
        "meta_inclination": 0.0748,
        "meta_ra_of_asc_node": 102.0172,
        "meta_arg_of_pericenter": 164.4838,
        "meta_mean_anomaly": 156.055,
        "meta_ephemeris_type": 0,
        "meta_classification_type": "U",
        "meta_norad_cat_id": 41866,
        "meta_element_set_no": 999,
        "meta_rev_at_epoch": 3334,
        "meta_bstar": 0,
        "meta_mean_motion_dot": -7e-07,
        "meta_mean_motion_ddot": 0,
        "tle_line1": "1 41866U 16071A   25358.20620872 -.00000070  00000+0  00000+0 0  9996",
        "tle_line2": "2 41866   0.0748 102.0172 0003145 164.4838 156.0550  1.00271814 33345"
      },
      "geometry": {
        "type": "Point",
        "coordinates": [
          48.26418583678271,
          -0.04792713277055682
        ]
      }
    },
    {
      "type": "Feature",
      "properties": {
        "norad_id": 41882,
        "name": "FENGYUN 4A",
        "group": "weather",
        "lat": -0.4839338159503821,
        "lon": -83.45098129871523,
        "alt_km": 35776.61408276563,
        "timestamp": "2025-12-25T03:55:55.948780+00:00",
        "meta_object_name": "FENGYUN 4A",
        "meta_object_id": "2016-077A",
        "meta_epoch": "2025-12-24T20:32:05.847072",
        "meta_mean_motion": 1.00263369,
        "meta_eccentricity": 0.0004492,
        "meta_inclination": 1.8778,
        "meta_ra_of_asc_node": 82.2736,
        "meta_arg_of_pericenter": 143.1291,
        "meta_mean_anomaly": 299.8651,
        "meta_ephemeris_type": 0,
        "meta_classification_type": "U",
        "meta_norad_cat_id": 41882,
        "meta_element_set_no": 999,
        "meta_rev_at_epoch": 3318,
        "meta_bstar": 0,
        "meta_mean_motion_dot": -3.37e-06,
        "meta_mean_motion_ddot": 0,
        "tle_line1": "1 41882U 16077A   25358.85562323 -.00000337  00000+0  00000+0 0  9993",
        "tle_line2": "2 41882   1.8778  82.2736 0004492 143.1291 299.8651  1.00263369 33189"
      },
      "geometry": {
        "type": "Point",
        "coordinates": [
          -83.45098129871523,
          -0.4839338159503821
        ]
      }
    },
    {
      "type": "Feature",
      "properties": {
        "norad_id": 41884,
        "name": "CYGFM05",
        "group": "weather",
        "lat": -25.961235857073643,
        "lon": -169.87534787608718,
        "alt_km": 420.30634780470064,
        "timestamp": "2025-12-25T03:55:55.948792+00:00",
        "meta_object_name": "CYGFM05",
        "meta_object_id": "2016-078A",
        "meta_epoch": "2025-12-24T14:33:43.494624",
        "meta_mean_motion": 15.48073343,
        "meta_eccentricity": 0.001063,
        "meta_inclination": 34.9606,
        "meta_ra_of_asc_node": 329.5892,
        "meta_arg_of_pericenter": 285.346,
        "meta_mean_anomaly": 74.6087,
        "meta_ephemeris_type": 0,
        "meta_classification_type": "U",
        "meta_norad_cat_id": 41884,
        "meta_element_set_no": 999,
        "meta_rev_at_epoch": 50160,
        "meta_bstar": 0.00039127,
        "meta_mean_motion_dot": 0.00021189,
        "meta_mean_motion_ddot": 0,
        "tle_line1": "1 41884U 16078A   25358.60675341  .00021189  00000+0  39127-3 0  9997",
        "tle_line2": "2 41884  34.9606 329.5892 0010630 285.3460  74.6087 15.48073343501603"
      },
      "geometry": {
        "type": "Point",
        "coordinates": [
          -169.87534787608718,
          -25.961235857073643
        ]
      }
    },
    {
      "type": "Feature",
      "properties": {
        "norad_id": 41885,
        "name": "CYGFM04",
        "group": "weather",
        "lat": -27.198862344125917,
        "lon": 167.77300158307764,
        "alt_km": 414.97080583460865,
        "timestamp": "2025-12-25T03:55:55.948803+00:00",
        "meta_object_name": "CYGFM04",
        "meta_object_id": "2016-078B",
        "meta_epoch": "2025-12-24T03:45:30.157056",
        "meta_mean_motion": 15.5083976,
        "meta_eccentricity": 0.00092946,
        "meta_inclination": 34.9353,
        "meta_ra_of_asc_node": 306.9755,
        "meta_arg_of_pericenter": 306.3575,
        "meta_mean_anomaly": 53.6289,
        "meta_ephemeris_type": 0,
        "meta_classification_type": "U",
        "meta_norad_cat_id": 41885,
        "meta_element_set_no": 999,
        "meta_rev_at_epoch": 50171,
        "meta_bstar": 0.00041478685,
        "meta_mean_motion_dot": 0.00024779,
        "meta_mean_motion_ddot": 0,
        "tle_line1": "1 41885U 16078B   25358.15659904  .00024779  00000+0  41479-3 0  9996",
        "tle_line2": "2 41885  34.9353 306.9755 0009294 306.3575  53.6289 15.50839760501714"
      },
      "geometry": {
        "type": "Point",
        "coordinates": [
          167.77300158307764,
          -27.198862344125917
        ]
      }
    },
    {
      "type": "Feature",
      "properties": {
        "norad_id": 41886,
        "name": "CYGFM02",
        "group": "weather",
        "lat": -26.514278729120136,
        "lon": -107.07664628793123,
        "alt_km": 404.3269454386227,
        "timestamp": "2025-12-25T03:55:55.948814+00:00",
        "meta_object_name": "CYGFM02",
        "meta_object_id": "2016-078C",
        "meta_epoch": "2025-12-24T20:26:02.887584",
        "meta_mean_motion": 15.52287932,
        "meta_eccentricity": 0.001079,
        "meta_inclination": 34.9438,
        "meta_ra_of_asc_node": 300.5806,
        "meta_arg_of_pericenter": 313.4948,
        "meta_mean_anomaly": 46.4878,
        "meta_ephemeris_type": 0,
        "meta_classification_type": "U",
        "meta_norad_cat_id": 41886,
        "meta_element_set_no": 999,
        "meta_rev_at_epoch": 50195,
        "meta_bstar": 0.00039992,
        "meta_mean_motion_dot": 0.00025184,
        "meta_mean_motion_ddot": 0,
        "tle_line1": "1 41886U 16078C   25358.85142231  .00025184  00000+0  39992-3 0  9992",
        "tle_line2": "2 41886  34.9438 300.5806 0010790 313.4948  46.4878 15.52287932501952"
      },
      "geometry": {
        "type": "Point",
        "coordinates": [
          -107.07664628793123,
          -26.514278729120136
        ]
      }
    },
    {
      "type": "Feature",
      "properties": {
        "norad_id": 41887,
        "name": "CYGFM01",
        "group": "weather",
        "lat": -29.557940626292275,
        "lon": -86.10183198065879,
        "alt_km": 415.58306249918405,
        "timestamp": "2025-12-25T03:55:55.948824+00:00",
        "meta_object_name": "CYGFM01",
        "meta_object_id": "2016-078D",
        "meta_epoch": "2025-12-24T06:31:41.746080",
        "meta_mean_motion": 15.48651052,
        "meta_eccentricity": 0.00104085,
        "meta_inclination": 34.9436,
        "meta_ra_of_asc_node": 334.0447,
        "meta_arg_of_pericenter": 275.2665,
        "meta_mean_anomaly": 84.6869,
        "meta_ephemeris_type": 0,
        "meta_classification_type": "U",
        "meta_norad_cat_id": 41887,
        "meta_element_set_no": 999,
        "meta_rev_at_epoch": 50149,
        "meta_bstar": 0.00040597241,
        "meta_mean_motion_dot": 0.00022441,
        "meta_mean_motion_ddot": 0,
        "tle_line1": "1 41887U 16078D   25358.27201095  .00022441  00000+0  40597-3 0  9999",
        "tle_line2": "2 41887  34.9436 334.0447 0010408 275.2665  84.6869 15.48651052501497"
      },
      "geometry": {
        "type": "Point",
        "coordinates": [
          -86.10183198065879,
          -29.557940626292275
        ]
      }
    },
    {
      "type": "Feature",
      "properties": {
        "norad_id": 41888,
        "name": "CYGFM08",
        "group": "weather",
        "lat": 23.355345186172187,
        "lon": -10.749183051770377,
        "alt_km": 413.2960214944651,
        "timestamp": "2025-12-25T03:55:55.948835+00:00",
        "meta_object_name": "CYGFM08",
        "meta_object_id": "2016-078E",
        "meta_epoch": "2025-12-24T06:06:07.479072",
        "meta_mean_motion": 15.49887318,
        "meta_eccentricity": 0.001161,
        "meta_inclination": 34.9466,
        "meta_ra_of_asc_node": 317.0171,
        "meta_arg_of_pericenter": 298.3091,
        "meta_mean_anomaly": 61.646,
        "meta_ephemeris_type": 0,
        "meta_classification_type": "U",
        "meta_norad_cat_id": 41888,
        "meta_element_set_no": 999,
        "meta_rev_at_epoch": 50172,
        "meta_bstar": 0.00040991288,
        "meta_mean_motion_dot": 0.00023689,
        "meta_mean_motion_ddot": 0,
        "tle_line1": "1 41888U 16078E   25358.25425323  .00023689  00000+0  40991-3 0  9993",
        "tle_line2": "2 41888  34.9466 317.0171 0011610 298.3091  61.6460 15.49887318501726"
      },
      "geometry": {
        "type": "Point",
        "coordinates": [
          -10.749183051770377,
          23.355345186172187
        ]
      }
    }
  ]
}